IRIDIUM 156             
1 43576U 18061H   26204.04822226  .00000161  00000+0  50261-4 0  9996
2 43576  86.3936  41.7268 0002181  93.2067 266.9379 14.34217897418516
IRIDIUM 164             
1 43577U 18061J   26204.44780652  .00000026  00000+0  22525-5 0  9990
2 43577  86.3938  41.6004 0002314  88.0685 272.0776 14.34217747418616
IRIDIUM 159             
1 43578U 18061K   26204.06725033  .00000051  00000+0  11172-4 0  9994
2 43578  86.3936  41.6958 0002081  87.2677 272.8757 14.34217834418520
IRIDIUM 180             
1 43922U 19002A   26204.34582072  .00000169  00000+0  53362-4 0  9995
2 43922  86.4000 338.4837 0002154  91.5999 268.5444 14.34218621394179
IRIDIUM 176             
1 43923U 19002B   26204.31792117  .00000690  00000+0  10558-3 0  9994
2 43923  86.6121 338.4337 0002343  91.9206 268.2279 14.72257327404562
IRIDIUM 168             
1 43924U 19002C   26204.33947755  .00000221  00000+0  71680-4 0  9991
2 43924  86.4002 338.5645 0002193  91.8841 268.2606 14.34219318394152
IRIDIUM 173             
1 43925U 19002D   26204.60586734 -.00000030  00000+0 -17901-4 0  9994
2 43925  86.3998 338.3410 0002038  93.2260 266.9169 14.34217396394178
IRIDIUM 169             
1 43926U 19002E   26204.42121725  .00000276  00000+0  83648-4 0  9991
2 43926  86.4230  10.0404 0002131 104.4154 255.7281 14.38601957395432
IRIDIUM 172             
1 43927U 19002F   26204.80882991  .00000001  00000+0 -67166-5 0  9998
2 43927  86.3998 338.2643 0002075  92.3495 267.7938 14.34217706394211
IRIDIUM 175             
1 43928U 19002G   26204.52729297  .00000230  00000+0  61766-4 0  9999
2 43928  86.4502 275.3312 0005580  99.2968 260.8865 14.43630311404220
IRIDIUM 171             
1 43929U 19002H   26204.72003397  .00000193  00000+0  61988-4 0  9992
2 43929  86.4010 338.6112 0002287  95.0648 265.0809 14.34218765394190
IRIDIUM 170             
1 43930U 19002J   26204.39205508  .00000681  00000+0  10412-3 0  9992
2 43930  86.6119 338.4048 0002189  89.9785 270.1683 14.72257955404583
IRIDIUM 167             
1 43931U 19002K   26204.71369147  .00000180  00000+0  57172-4 0  9998
2 43931  86.4000 338.3262 0002414  98.3787 261.7683 14.34218003394195
IRIDIUM 181             
1 56726U 23068S   26204.29640103  .00000245  00000+0  66654-4 0  9995
2 56726  86.4474  41.6886 0002315  83.4434 276.7031 14.43310115167644
IRIDIUM 177             
1 56727U 23068T   26204.76358763  .00000650  00000+0  82404-4 0  9997
2 56727  86.1986 311.4280 0002265  98.7151 261.4327 14.80032117171777
IRIDIUM 174             
1 56728U 23068U   26204.71943172  .00000638  00000+0  97262-4 0  9991
2 56728  86.6126 338.4188 0001909  95.1806 264.9629 14.72253717171390
IRIDIUM 178             
1 56729U 23068V   26204.54980382  .00000759  00000+0  96895-4 0  9992
2 56729  86.6543  10.1626 0002284  92.2650 267.8833 14.80023267171749
IRIDIUM 179             
1 56730U 23068W   26204.47683898  .00000300  00000+0  36245-4 0  9993
2 56730  86.6772  19.2790 0002408  94.0972 266.0525 14.80026009171737
